STARLINK-33809          
1 63508U 25071R   26068.50705340  .00032875  00000+0  11179-2 0  9998
2 63508  53.1583 140.6134 0001210  88.6701 271.4439 15.30178871 52684
HERMES-3                
1 63835U 25052BR  26068.93751242  .00020316  00000+0  69958-3 0  9995
2 63835  97.3987 324.6131 0007993 112.9583 247.2502 15.30039785 54863
