[{"OBJECT_NAME":"STARLINK-33809","OBJECT_ID":"2025-071R","EPOCH":"2026-03-09T12:10:09.413760","MEAN_MOTION":15.30178871,"ECCENTRICITY":0.00012102,"INCLINATION":53.1583,"RA_OF_ASC_NODE":140.6134,"ARG_OF_PERICENTER":88.6701,"MEAN_ANOMALY":271.4439,"EPHEMERIS_TYPE":0,"CLASSIFICATION_TYPE":"U","NORAD_CAT_ID":63508,"ELEMENT_SET_NO":999,"REV_AT_EPOCH":5268,"BSTAR":0.0011179203,"MEAN_MOTION_DOT":0.00032875,"MEAN_MOTION_DDOT":0},{"OBJECT_NAME":"HERMES-3","OBJECT_ID":"2025-052BR","EPOCH":"2026-03-09T22:30:01.073952","MEAN_MOTION":15.30039786,"ECCENTRICITY":0.00079928,"INCLINATION":97.3987,"RA_OF_ASC_NODE":324.6131,"ARG_OF_PERICENTER":112.9583,"MEAN_ANOMALY":247.2502,"EPHEMERIS_TYPE":0,"CLASSIFICATION_TYPE":"U","NORAD_CAT_ID":63835,"ELEMENT_SET_NO":999,"REV_AT_EPOCH":5486,"BSTAR":0.0006995793,"MEAN_MOTION_DOT":0.00020316,"MEAN_MOTION_DDOT":0}]
